[{"OBJECT_NAME":"STARLINK-34516","OBJECT_ID":"2025-137M","EPOCH":"2026-03-09T22:01:06.852288","MEAN_MOTION":15.30227626,"ECCENTRICITY":9.217e-5,"INCLINATION":53.1592,"RA_OF_ASC_NODE":333.9073,"ARG_OF_PERICENTER":67.6959,"MEAN_ANOMALY":292.414,"EPHEMERIS_TYPE":0,"CLASSIFICATION_TYPE":"U","NORAD_CAT_ID":64605,"ELEMENT_SET_NO":999,"REV_AT_EPOCH":4087,"BSTAR":0.00082382534,"MEAN_MOTION_DOT":0.0002414,"MEAN_MOTION_DDOT":0},{"OBJECT_NAME":"GEOSCAN 5 (RS92S5)","OBJECT_ID":"2025-155R","EPOCH":"2026-03-09T22:01:07.273920","MEAN_MOTION":15.30265233,"ECCENTRICITY":0.00070849,"INCLINATION":97.4462,"RA_OF_ASC_NODE":37.7456,"ARG_OF_PERICENTER":154.5846,"MEAN_ANOMALY":205.5745,"EPHEMERIS_TYPE":0,"CLASSIFICATION_TYPE":"U","NORAD_CAT_ID":64891,"ELEMENT_SET_NO":999,"REV_AT_EPOCH":6562,"BSTAR":0.00068639307,"MEAN_MOTION_DOT":0.00020065,"MEAN_MOTION_DDOT":0}]
